ONEWEB-0294             
1 49083U 21075J   26176.48786083  .00000043  00000+0  85509-4 0  9992
2 49083  87.8953 349.0080 0001977 101.6321 258.5029 13.12440604235666
ONEWEB-0295             
1 49084U 21075K   26176.54072950  .00000049  00000+0  93254-4 0  9993
2 49084  87.9132   4.2071 0002191  87.2750 272.8632 13.17649137234699
ONEWEB-0296             
1 49085U 21075L   26176.84872615  .00000554  00000+0  15058-2 0  9998
2 49085  87.8954 348.9440 0002013  84.6352 275.5006 13.12441125235712
ONEWEB-0297             
1 49086U 21075M   26176.49801821 -.00000228  00000+0 -66970-3 0  9991
2 49086  87.8941 349.0232 0001931  90.4104 269.7246 13.12441225236272
ONEWEB-0298             
1 49087U 21075N   26176.54509110 -.00000019  00000+0 -81518-4 0  9998
2 49087  87.9134   4.2045 0001851  85.4835 274.6508 13.17648296234722
ONEWEB-0299             
1 49088U 21075P   26176.54662752  .00000064  00000+0  13105-3 0  9995
2 49088  87.9143   4.1854 0002000  86.1382 273.9978 13.17650762234704
ONEWEB-0300             
1 49089U 21075Q   26176.49039539 -.00000042  00000+0 -15282-3 0  9997
2 49089  87.8953 349.0051 0001672  80.8801 279.2516 13.12440796236296
ONEWEB-0301             
1 49090U 21075R   26176.85549525  .00000480  00000+0  12992-2 0  9998
2 49090  87.8951 348.9306 0001560  84.8857 275.2450 13.12442157235709
ONEWEB-0302             
1 49091U 21075S   26176.84193927  .00000321  00000+0  85767-3 0  9994
2 49091  87.8953 348.9455 0002059  98.4888 261.6474 13.12444896235680
ONEWEB-0304             
1 49092U 21075T   26176.59725296  .00000011  00000+0 -59696-5 0  9998
2 49092  87.9134   4.1967 0002007  87.4174 272.7187 13.17649716234687
ONEWEB-0305             
1 49093U 21075U   26176.51456931  .00000037  00000+0  61418-4 0  9999
2 49093  87.9141   4.1982 0002213  83.7313 276.4070 13.17649789234701
ONEWEB-0308             
1 49094U 21075V   26176.53020869  .00000225  00000+0  59006-3 0  9997
2 49094  87.8952 348.9995 0001818  92.3030 267.8306 13.12445231235658
ONEWEB-0309             
1 49095U 21075W   26176.59388311  .00000013  00000+0 -13483-7 0  9992
2 49095  87.9133   4.1901 0002147 100.8920 259.2453 13.17648697234684
ONEWEB-0310             
1 49096U 21075X   26176.85041641  .00000426  00000+0  11481-2 0  9992
2 49096  87.8943 348.9566 0001812  93.0232 267.1104 13.12442293236329
ONEWEB-0311             
1 49097U 21075Y   26176.52469084  .00000056  00000+0  11006-3 0  9995
2 49097  87.9135   4.2037 0002129  78.9591 281.1780 13.17650790234727
ONEWEB-0312             
1 49098U 21075Z   26176.53987381 -.00000314  00000+0 -84246-3 0  9997
2 49098  87.9131   4.2111 0002170  88.8094 271.3286 13.17649884234703
ONEWEB-0313             
1 49099U 21075AA  26176.54480755  .00000046  00000+0  86196-4 0  9999
2 49099  87.9129   4.2159 0001976  86.7433 273.3925 13.17649484234696
ONEWEB-0314             
1 49100U 21075AB  26176.51120383  .00000002  00000+0 -27117-4 0  9998
2 49100  87.9142   4.1960 0002245  88.0554 272.0834 13.17649276234663
ONEWEB-0315             
1 49101U 21075AC  26176.59458362 -.00000335  00000+0 -96697-3 0  9996
2 49101  87.8950 348.9722 0001951  80.8572 279.2777 13.12443858236275
ONEWEB-0316             
1 49102U 21075AD  26176.80871130 -.00000313  00000+0 -82538-3 0  9998
2 49102  87.9173 333.7403 0001890  94.9949 265.1399 13.18691136238342
ONEWEB-0317             
1 49103U 21075AE  26176.52173725 -.00000115  00000+0 -35362-3 0  9996
2 49103  87.8953 349.0108 0001857 115.1341 244.9980 13.12445377236285
ONEWEB-0318             
1 49104U 21075AF  26176.80535384 -.00001557  00000+0 -39828-2 0  9992
2 49104  87.9170 333.7425 0001794  90.1464 269.9874 13.18681736238309
ONEWEB-0319             
1 49105U 21075AG  26176.52638100  .00000035  00000+0  55980-4 0  9999
2 49105  87.9133   4.2085 0002025  74.3103 285.8252 13.17649935234704
ONEWEB-0323             
1 49106U 21075AH  26176.50310043 -.00000342  00000+0 -98515-3 0  9994
2 49106  87.8953 348.9954 0002150  78.9987 281.1384 13.12441392235647
ONEWEB-0329             
1 49107U 21075AJ  26176.53482141  .00000007  00000+0 -16083-4 0  9995
2 49107  87.9134   4.2075 0001982  87.9544 272.1815 13.17649204234686
ONEWEB-0330             
1 49108U 21075AK  26176.83335647  .00023926  00000+0  60068-1 0  9990
2 49108  87.9136   4.1654 0002115  92.7844 166.6617 13.19166904  5256
RSW-01                  
1 49112U 21076A   26176.76934907 -.00000032  00000+0 -83983-4 0  9991
2 49112  86.4102 154.7566 0017165  45.5551 314.6994 13.42857711237039
PAYLOAD B               
1 49113U 21076B   26176.87386954  .00000172  00000+0  87814-4 0  9997
2 49113  86.4026  79.5478 0019064 173.8240 186.3181 14.09467193248658
RSW-02                  
1 49114U 21076C   26176.90806777  .00000007  00000+0 -14866-4 0  9997
2 49114  86.4102 154.6880 0020637  41.8102 318.4614 13.42853898237053
TJS-7                   
1 49115U 21077A   26176.81458361 -.00000114  00000+0  00000+0 0  9990
2 49115   0.3322 264.8602 0003667 117.7451  85.1291  1.00276127  9638
GAOFEN-5 02             
1 49122U 21079A   26176.84129329  .00000113  00000+0  34923-4 0  9996
2 49122  98.2607 251.0861 0001077  33.7013 326.4254 14.57696788255343
