OBJECT_NAME,OBJECT_ID,EPOCH,MEAN_MOTION,ECCENTRICITY,INCLINATION,RA_OF_ASC_NODE,ARG_OF_PERICENTER,MEAN_ANOMALY,EPHEMERIS_TYPE,CLASSIFICATION_TYPE,NORAD_CAT_ID,ELEMENT_SET_NO,REV_AT_EPOCH,BSTAR,MEAN_MOTION_DOT,MEAN_MOTION_DDOT
ONEWEB-0294,2021-075J,2026-06-25T11:42:31.175712,13.12440604,.0001977,87.8953,349.0080,101.6321,258.5029,0,U,49083,999,23566,.85509E-4,.43E-6,0
ONEWEB-0295,2021-075K,2026-06-25T12:58:39.028800,13.17649137,.0002191,87.9132,4.2071,87.2750,272.8632,0,U,49084,999,23469,.93254E-4,.49E-6,0
ONEWEB-0296,2021-075L,2026-06-25T20:22:09.939360,13.12441125,.0002013,87.8954,348.9440,84.6352,275.5006,0,U,49085,999,23571,.15058E-2,.554E-5,0
ONEWEB-0297,2021-075M,2026-06-25T11:57:08.773344,13.12441225,.0001931,87.8941,349.0232,90.4104,269.7246,0,U,49086,999,23627,-.6697E-3,-.228E-5,0
ONEWEB-0298,2021-075N,2026-06-25T13:04:55.871040,13.17648296,.0001851,87.9134,4.2045,85.4835,274.6508,0,U,49087,999,23472,-.81518E-4,-.19E-6,0
ONEWEB-0299,2021-075P,2026-06-25T13:07:08.617728,13.17650762,.0002,87.9143,4.1854,86.1382,273.9978,0,U,49088,999,23470,.13105E-3,.64E-6,0
ONEWEB-0300,2021-075Q,2026-06-25T11:46:10.161696,13.12440796,.0001672,87.8953,349.0051,80.8801,279.2516,0,U,49089,999,23629,-.15282E-3,-.42E-6,0
ONEWEB-0301,2021-075R,2026-06-25T20:31:54.789600,13.12442157,.000156,87.8951,348.9306,84.8857,275.2450,0,U,49090,999,23570,.12992E-2,.48E-5,0
ONEWEB-0302,2021-075S,2026-06-25T20:12:23.552928,13.12444896,.0002059,87.8953,348.9455,98.4888,261.6474,0,U,49091,999,23568,.85767E-3,.321E-5,0
ONEWEB-0304,2021-075T,2026-06-25T14:20:02.655744,13.17649716,.0002007,87.9134,4.1967,87.4174,272.7187,0,U,49092,999,23468,-.59696E-5,.11E-6,0
ONEWEB-0305,2021-075U,2026-06-25T12:20:58.788384,13.17649789,.0002213,87.9141,4.1982,83.7313,276.4070,0,U,49093,999,23470,.61418E-4,.37E-6,0
ONEWEB-0308,2021-075V,2026-06-25T12:43:30.030816,13.12445231,.0001818,87.8952,348.9995,92.3030,267.8306,0,U,49094,999,23565,.59006E-3,.225E-5,0
ONEWEB-0309,2021-075W,2026-06-25T14:15:11.500704,13.17648697,.0002147,87.9133,4.1901,100.8920,259.2453,0,U,49095,999,23468,-.13483E-7,.13E-6,0
ONEWEB-0310,2021-075X,2026-06-25T20:24:35.977824,13.12442293,.0001812,87.8943,348.9566,93.0232,267.1104,0,U,49096,999,23632,.11481E-2,.426E-5,0
ONEWEB-0311,2021-075Y,2026-06-25T12:35:33.288576,13.17650790,.0002129,87.9135,4.2037,78.9591,281.1780,0,U,49097,999,23472,.11006E-3,.56E-6,0
ONEWEB-0312,2021-075Z,2026-06-25T12:57:25.097184,13.17649884,.000217,87.9131,4.2111,88.8094,271.3286,0,U,49098,999,23470,-.84246E-3,-.314E-5,0
ONEWEB-0313,2021-075AA,2026-06-25T13:04:31.372320,13.17649484,.0001976,87.9129,4.2159,86.7433,273.3925,0,U,49099,999,23469,.86196E-4,.46E-6,0
ONEWEB-0314,2021-075AB,2026-06-25T12:16:08.010912,13.17649276,.0002245,87.9142,4.1960,88.0554,272.0834,0,U,49100,999,23466,-.27117E-4,.2E-7,0
ONEWEB-0315,2021-075AC,2026-06-25T14:16:12.024768,13.12443858,.0001951,87.8950,348.9722,80.8572,279.2777,0,U,49101,999,23627,-.96697E-3,-.335E-5,0
ONEWEB-0316,2021-075AD,2026-06-25T19:24:32.656320,13.18691136,.000189,87.9173,333.7403,94.9949,265.1399,0,U,49102,999,23834,-.82538E-3,-.313E-5,0
ONEWEB-0317,2021-075AE,2026-06-25T12:31:18.098400,13.12445377,.0001857,87.8953,349.0108,115.1341,244.9980,0,U,49103,999,23628,-.35362E-3,-.115E-5,0
ONEWEB-0318,2021-075AF,2026-06-25T19:19:42.571776,13.18681736,.0001794,87.9170,333.7425,90.1464,269.9874,0,U,49104,999,23830,-.39828E-2,-.1557E-4,0
ONEWEB-0319,2021-075AG,2026-06-25T12:37:59.318400,13.17649935,.0002025,87.9133,4.2085,74.3103,285.8252,0,U,49105,999,23470,.5598E-4,.35E-6,0
ONEWEB-0323,2021-075AH,2026-06-25T12:04:27.877152,13.12441392,.000215,87.8953,348.9954,78.9987,281.1384,0,U,49106,999,23564,-.98515E-3,-.342E-5,0
ONEWEB-0329,2021-075AJ,2026-06-25T12:50:08.569824,13.17649204,.0001982,87.9134,4.2075,87.9544,272.1815,0,U,49107,999,23468,-.16083E-4,.7E-7,0
ONEWEB-0330,2021-075AK,2026-06-25T20:00:01.999008,13.19166904,.0002115,87.9136,4.1654,92.7844,166.6617,0,U,49108,999,525,.60068E-1,.23926E-3,0
RSW-01,2021-076A,2026-06-25T18:27:51.759648,13.42857711,.0017165,86.4102,154.7566,45.5551,314.6994,0,U,49112,999,23703,-.83983E-4,-.32E-6,0
PAYLOAD B,2021-076B,2026-06-25T20:58:22.328256,14.09467193,.0019064,86.4026,79.5478,173.8240,186.3181,0,U,49113,999,24865,.87814E-4,.172E-5,0
RSW-02,2021-076C,2026-06-25T21:47:37.055328,13.42853898,.0020637,86.4102,154.6880,41.8102,318.4614,0,U,49114,999,23705,-.14866E-4,.7E-7,0
TJS-7,2021-077A,2026-06-25T19:33:00.023904,1.00276127,.0003667,0.3322,264.8602,117.7451,85.1291,0,U,49115,999,963,0,-.114E-5,0
GAOFEN-5 02,2021-079A,2026-06-25T20:11:27.740256,14.57696788,.0001077,98.2607,251.0861,33.7013,326.4254,0,U,49122,999,25534,.34923E-4,.113E-5,0
